{
  "links" : {
    "next" : "https://api.nasa.gov/neo/rest/v1/feed?start_date=2005-01-16&end_date=2005-01-16&detailed=true&api_key=t0TVs3DtDT2H8Oy2Zy8m2eVrNsAVKAexjcZXUckd",
    "prev" : "https://api.nasa.gov/neo/rest/v1/feed?start_date=2005-01-14&end_date=2005-01-14&detailed=true&api_key=t0TVs3DtDT2H8Oy2Zy8m2eVrNsAVKAexjcZXUckd",
    "self" : "https://api.nasa.gov/neo/rest/v1/feed?start_date=2005-01-15&end_date=2005-01-15&detailed=true&api_key=t0TVs3DtDT2H8Oy2Zy8m2eVrNsAVKAexjcZXUckd"
  },
  "element_count" : 7,
  "near_earth_objects" : {
    "2005-01-15" : [ {
      "links" : {
        "self" : "https://api.nasa.gov/neo/rest/v1/neo/3266506?api_key=t0TVs3DtDT2H8Oy2Zy8m2eVrNsAVKAexjcZXUckd"
      },
      "neo_reference_id" : "3266506",
      "name" : "(2005 BH14)",
      "nasa_jpl_url" : "http://ssd.jpl.nasa.gov/sbdb.cgi?sstr=3266506",
      "absolute_magnitude_h" : 21.5,
      "estimated_diameter" : {
        "kilometers" : {
          "estimated_diameter_min" : 0.1332155667,
          "estimated_diameter_max" : 0.2978790628
        },
        "meters" : {
          "estimated_diameter_min" : 133.2155666981,
          "estimated_diameter_max" : 297.8790627982
        },
        "miles" : {
          "estimated_diameter_min" : 0.0827762899,
          "estimated_diameter_max" : 0.1850934111
        },
        "feet" : {
          "estimated_diameter_min" : 437.0589598459,
          "estimated_diameter_max" : 977.2935443908
        }
      },
      "is_potentially_hazardous_asteroid" : false,
      "close_approach_data" : [ {
        "close_approach_date" : "2005-01-15",
        "epoch_date_close_approach" : 1105776000000,
        "relative_velocity" : {
          "kilometers_per_second" : "24.2514120986",
          "kilometers_per_hour" : "87305.0835550003",
          "miles_per_hour" : "54247.9837233834"
        },
        "miss_distance" : {
          "astronomical" : "0.0702973713",
          "lunar" : "27.3456764221",
          "kilometers" : "10516337",
          "miles" : "6534548.5"
        },
        "orbiting_body" : "Earth"
      } ],
      "orbital_data" : {
        "orbit_id" : "8",
        "orbit_determination_date" : "2017-04-06 09:11:32",
        "orbit_uncertainty" : "8",
        "minimum_orbit_intersection" : ".0702395",
        "jupiter_tisserand_invariant" : "5.104",
        "epoch_osculation" : "2453399.5",
        "eccentricity" : ".6539017577920003",
        "semi_major_axis" : "1.168208553017958",
        "inclination" : "25.04437807679696",
        "ascending_node_longitude" : "303.6324157389101",
        "orbital_period" : "461.1890627002585",
        "perihelion_distance" : ".4043149267318661",
        "perihelion_argument" : "50.00586362659157",
        "aphelion_distance" : "1.93210217930405",
        "perihelion_time" : "2453333.333745607759",
        "mean_anomaly" : "51.64877814261619",
        "mean_motion" : ".7805909313898355",
        "equinox" : "J2000"
      }
    }, {
      "links" : {
        "self" : "https://api.nasa.gov/neo/rest/v1/neo/3267067?api_key=t0TVs3DtDT2H8Oy2Zy8m2eVrNsAVKAexjcZXUckd"
      },
      "neo_reference_id" : "3267067",
      "name" : "(2005 CM)",
      "nasa_jpl_url" : "http://ssd.jpl.nasa.gov/sbdb.cgi?sstr=3267067",
      "absolute_magnitude_h" : 23.7,
      "estimated_diameter" : {
        "kilometers" : {
          "estimated_diameter_min" : 0.0483676488,
          "estimated_diameter_max" : 0.1081533507
        },
        "meters" : {
          "estimated_diameter_min" : 48.3676488219,
          "estimated_diameter_max" : 108.1533506775
        },
        "miles" : {
          "estimated_diameter_min" : 0.0300542543,
          "estimated_diameter_max" : 0.0672033557
        },
        "feet" : {
          "estimated_diameter_min" : 158.6865169607,
          "estimated_diameter_max" : 354.8338390368
        }
      },
      "is_potentially_hazardous_asteroid" : false,
      "close_approach_data" : [ {
        "close_approach_date" : "2005-01-15",
        "epoch_date_close_approach" : 1105776000000,
        "relative_velocity" : {
          "kilometers_per_second" : "6.9558225877",
          "kilometers_per_hour" : "25040.9613157941",
          "miles_per_hour" : "15559.4795464722"
        },
        "miss_distance" : {
          "astronomical" : "0.0629588506",
          "lunar" : "24.4909934998",
          "kilometers" : "9418510",
          "miles" : "5852391"
        },
        "orbiting_body" : "Earth"
      } ],
      "orbital_data" : {
        "orbit_id" : "10",
        "orbit_determination_date" : "2017-04-06 09:11:30",
        "orbit_uncertainty" : "8",
        "minimum_orbit_intersection" : ".0465933",
        "jupiter_tisserand_invariant" : "3.394",
        "epoch_osculation" : "2453405.5",
        "eccentricity" : ".5474256595655526",
        "semi_major_axis" : "2.275115584374664",
        "inclination" : ".796765237599213",
        "ascending_node_longitude" : "295.6563213107693",
        "orbital_period" : "1253.440216480934",
        "perihelion_distance" : "1.029658935010496",
        "perihelion_argument" : "166.2464560017185",
        "aphelion_distance" : "3.520572233738832",
        "perihelion_time" : "2453376.076829233986",
        "mean_anomaly" : "8.450615622900083",
        "mean_motion" : ".2872095495792447",
        "equinox" : "J2000"
      }
    }, {
      "links" : {
        "self" : "https://api.nasa.gov/neo/rest/v1/neo/3157028?api_key=t0TVs3DtDT2H8Oy2Zy8m2eVrNsAVKAexjcZXUckd"
      },
      "neo_reference_id" : "3157028",
      "name" : "(2003 MK4)",
      "nasa_jpl_url" : "http://ssd.jpl.nasa.gov/sbdb.cgi?sstr=3157028",
      "absolute_magnitude_h" : 20.9,
      "estimated_diameter" : {
        "kilometers" : {
          "estimated_diameter_min" : 0.1756123185,
          "estimated_diameter_max" : 0.3926810818
        },
        "meters" : {
          "estimated_diameter_min" : 175.6123184804,
          "estimated_diameter_max" : 392.6810818086
        },
        "miles" : {
          "estimated_diameter_min" : 0.1091204019,
          "estimated_diameter_max" : 0.2440006365
        },
        "feet" : {
          "estimated_diameter_min" : 576.1559189633,
          "estimated_diameter_max" : 1288.3238004408
        }
      },
      "is_potentially_hazardous_asteroid" : true,
      "close_approach_data" : [ {
        "close_approach_date" : "2005-01-15",
        "epoch_date_close_approach" : 1105776000000,
        "relative_velocity" : {
          "kilometers_per_second" : "18.7980986544",
          "kilometers_per_hour" : "67673.1551559386",
          "miles_per_hour" : "42049.4668800887"
        },
        "miss_distance" : {
          "astronomical" : "0.316050082",
          "lunar" : "122.9434814453",
          "kilometers" : "47280420",
          "miles" : "29378690"
        },
        "orbiting_body" : "Earth"
      } ],
      "orbital_data" : {
        "orbit_id" : "36",
        "orbit_determination_date" : "2017-04-06 09:14:01",
        "orbit_uncertainty" : "0",
        "minimum_orbit_intersection" : ".002686",
        "jupiter_tisserand_invariant" : "5.645",
        "epoch_osculation" : "2458000.5",
        "eccentricity" : ".1813074742198211",
        "semi_major_axis" : "1.080358900910442",
        "inclination" : "22.31610577352589",
        "ascending_node_longitude" : "282.6096056123453",
        "orbital_period" : "410.1573593775723",
        "perihelion_distance" : ".8844817573354675",
        "perihelion_argument" : "109.6056454321734",
        "aphelion_distance" : "1.276236044485416",
        "perihelion_time" : "2457844.766055641444",
        "mean_anomaly" : "136.6895380206257",
        "mean_motion" : ".8777119117070389",
        "equinox" : "J2000"
      }
    } ]
  }
}